{
  "type": "FeatureCollection",
  "features": [
    {
      "type": "Feature",
      "properties": {
        "norad_id": 66891,
        "name": "STARLINK-35855",
        "group": "last-30-days",
        "lat": -46.37738810154998,
        "lon": 0.9176579655057585,
        "alt_km": 317.3271249107147,
        "timestamp": "2025-12-16T21:38:55.919287+00:00",
        "meta_object_name": "STARLINK-35855",
        "meta_object_id": "2025-283P",
        "meta_epoch": "2025-12-16T06:47:53.622528",
        "meta_mean_motion": 15.85857,
        "meta_eccentricity": 1.894e-05,
        "meta_inclination": 53.155,
        "meta_ra_of_asc_node": 55.9335,
        "meta_arg_of_pericenter": 274.587,
        "meta_mean_anomaly": 85.5134,
        "meta_ephemeris_type": 0,
        "meta_classification_type": "U",
        "meta_norad_cat_id": 66891,
        "meta_element_set_no": 999,
        "meta_rev_at_epoch": 301,
        "meta_bstar": 0.0012242127,
        "meta_mean_motion_dot": 0.00316391,
        "meta_mean_motion_ddot": 0,
        "tle_line1": "1 66891U 25283P   25350.28325952  .00316391  00000+0  12242-2 0  9996",
        "tle_line2": "2 66891  53.1550  55.9335 0000189 274.5870  85.5134 15.85857000  3011"
      },
      "geometry": {
        "type": "Point",
        "coordinates": [
          0.9176579655057585,
          -46.37738810154998
        ]
      }
    },
    {
      "type": "Feature",
      "properties": {
        "norad_id": 66892,
        "name": "STARLINK-35883",
        "group": "last-30-days",
        "lat": -44.39411732222451,
        "lon": 5.560228283035599,
        "alt_km": 316.7192155032726,
        "timestamp": "2025-12-16T21:38:55.919297+00:00",
        "meta_object_name": "STARLINK-35883",
        "meta_object_id": "2025-283Q",
        "meta_epoch": "2025-12-16T05:16:29.093952",
        "meta_mean_motion": 15.86267436,
        "meta_eccentricity": 0.00022225,
        "meta_inclination": 53.1547,
        "meta_ra_of_asc_node": 56.2482,
        "meta_arg_of_pericenter": 170.4968,
        "meta_mean_anomaly": 189.6099,
        "meta_ephemeris_type": 0,
        "meta_classification_type": "U",
        "meta_norad_cat_id": 66892,
        "meta_element_set_no": 999,
        "meta_rev_at_epoch": 300,
        "meta_bstar": 0.0013912988,
        "meta_mean_motion_dot": 0.0036912,
        "meta_mean_motion_ddot": 0,
        "tle_line1": "1 66892U 25283Q   25350.21978118  .00369120  00000+0  13913-2 0  9992",
        "tle_line2": "2 66892  53.1547  56.2482 0002222 170.4968 189.6099 15.86267436  3001"
      },
      "geometry": {
        "type": "Point",
        "coordinates": [
          5.560228283035599,
          -44.39411732222451
        ]
      }
    },
    {
      "type": "Feature",
      "properties": {
        "norad_id": 66893,
        "name": "STARLINK-36033",
        "group": "last-30-days",
        "lat": -43.147343418989486,
        "lon": 8.135070913821481,
        "alt_km": 317.0924564308052,
        "timestamp": "2025-12-16T21:38:55.919307+00:00",
        "meta_object_name": "STARLINK-36033",
        "meta_object_id": "2025-283R",
        "meta_epoch": "2025-12-16T05:15:50.902560",
        "meta_mean_motion": 15.86247374,
        "meta_eccentricity": 0.00021551,
        "meta_inclination": 53.1548,
        "meta_ra_of_asc_node": 56.2452,
        "meta_arg_of_pericenter": 180.6461,
        "meta_mean_anomaly": 179.4562,
        "meta_ephemeris_type": 0,
        "meta_classification_type": "U",
        "meta_norad_cat_id": 66893,
        "meta_element_set_no": 999,
        "meta_rev_at_epoch": 300,
        "meta_bstar": 0.00086491941,
        "meta_mean_motion_dot": 0.00225211,
        "meta_mean_motion_ddot": 0,
        "tle_line1": "1 66893U 25283R   25350.21933915  .00225211  00000+0  86492-3 0  9994",
        "tle_line2": "2 66893  53.1548  56.2452 0002155 180.6461 179.4562 15.86247374  3007"
      },
      "geometry": {
        "type": "Point",
        "coordinates": [
          8.135070913821481,
          -43.147343418989486
        ]
      }
    },
    {
      "type": "Feature",
      "properties": {
        "norad_id": 66894,
        "name": "STARLINK-35718",
        "group": "last-30-days",
        "lat": -39.32672467050791,
        "lon": 14.876261267272579,
        "alt_km": 316.6138115591011,
        "timestamp": "2025-12-16T21:38:55.919322+00:00",
        "meta_object_name": "STARLINK-35718",
        "meta_object_id": "2025-283S",
        "meta_epoch": "2025-12-15T14:08:02.213664",
        "meta_mean_motion": 15.87892721,
        "meta_eccentricity": 0.00014965,
        "meta_inclination": 53.1553,
        "meta_ra_of_asc_node": 59.4259,
        "meta_arg_of_pericenter": 43.2215,
        "meta_mean_anomaly": 316.8928,
        "meta_ephemeris_type": 0,
        "meta_classification_type": "U",
        "meta_norad_cat_id": 66894,
        "meta_element_set_no": 999,
        "meta_rev_at_epoch": 290,
        "meta_bstar": -0.00189,
        "meta_mean_motion_dot": -0.00494762,
        "meta_mean_motion_ddot": 0,
        "tle_line1": "1 66894U 25283S   25349.58891451 -.00494762  00000+0 -18900-2 0  9990",
        "tle_line2": "2 66894  53.1553  59.4259 0001496  43.2215 316.8928 15.87892721  2906"
      },
      "geometry": {
        "type": "Point",
        "coordinates": [
          14.876261267272579,
          -39.32672467050791
        ]
      }
    },
    {
      "type": "Feature",
      "properties": {
        "norad_id": 66895,
        "name": "STARLINK-35971",
        "group": "last-30-days",
        "lat": -38.746812586519454,
        "lon": 15.780714690451267,
        "alt_km": 317.31609536461656,
        "timestamp": "2025-12-16T21:38:55.919336+00:00",
        "meta_object_name": "STARLINK-35971",
        "meta_object_id": "2025-283T",
        "meta_epoch": "2025-12-16T05:13:43.906656",
        "meta_mean_motion": 15.8596507,
        "meta_eccentricity": 0.00011568,
        "meta_inclination": 53.1544,
        "meta_ra_of_asc_node": 56.2345,
        "meta_arg_of_pericenter": 276.0883,
        "meta_mean_anomaly": 84.001,
        "meta_ephemeris_type": 0,
        "meta_classification_type": "U",
        "meta_norad_cat_id": 66895,
        "meta_element_set_no": 999,
        "meta_rev_at_epoch": 300,
        "meta_bstar": -6.2150907e-05,
        "meta_mean_motion_dot": -0.00016343,
        "meta_mean_motion_ddot": 0,
        "tle_line1": "1 66895U 25283T   25350.21786929 -.00016343  00000+0 -62151-4 0  9990",
        "tle_line2": "2 66895  53.1544  56.2345 0001156 276.0883  84.0010 15.85965070  3002"
      },
      "geometry": {
        "type": "Point",
        "coordinates": [
          15.780714690451267,
          -38.746812586519454
        ]
      }
    },
    {
      "type": "Feature",
      "properties": {
        "norad_id": 66896,
        "name": "STARLINK-35791",
        "group": "last-30-days",
        "lat": -40.87777980198849,
        "lon": 12.314690438389164,
        "alt_km": 319.3461654885159,
        "timestamp": "2025-12-16T21:38:55.919346+00:00",
        "meta_object_name": "STARLINK-35791",
        "meta_object_id": "2025-283U",
        "meta_epoch": "2025-12-16T05:14:21.930432",
        "meta_mean_motion": 15.86053588,
        "meta_eccentricity": 0.00015436,
        "meta_inclination": 53.1546,
        "meta_ra_of_asc_node": 56.2376,
        "meta_arg_of_pericenter": 312.2852,
        "meta_mean_anomaly": 47.8042,
        "meta_ephemeris_type": 0,
        "meta_classification_type": "U",
        "meta_norad_cat_id": 66896,
        "meta_element_set_no": 999,
        "meta_rev_at_epoch": 300,
        "meta_bstar": -0.0027170734,
        "meta_mean_motion_dot": -0.00638881,
        "meta_mean_motion_ddot": 0,
        "tle_line1": "1 66896U 25283U   25350.21830938 -.00638881  00000+0 -27171-2 0  9999",
        "tle_line2": "2 66896  53.1546  56.2376 0001543 312.2852  47.8042 15.86053588  3003"
      },
      "geometry": {
        "type": "Point",
        "coordinates": [
          12.314690438389164,
          -40.87777980198849
        ]
      }
    },
    {
      "type": "Feature",
      "properties": {
        "norad_id": 66897,
        "name": "STARLINK-36079",
        "group": "last-30-days",
        "lat": -34.615901943488055,
        "lon": 21.59339151308034,
        "alt_km": 313.23665226972116,
        "timestamp": "2025-12-16T21:38:55.919356+00:00",
        "meta_object_name": "STARLINK-36079",
        "meta_object_id": "2025-283V",
        "meta_epoch": "2025-12-16T05:13:01.425504",
        "meta_mean_motion": 15.86956658,
        "meta_eccentricity": 0.00048335,
        "meta_inclination": 53.1545,
        "meta_ra_of_asc_node": 56.2318,
        "meta_arg_of_pericenter": 212.663,
        "meta_mean_anomaly": 147.4097,
        "meta_ephemeris_type": 0,
        "meta_classification_type": "U",
        "meta_norad_cat_id": 66897,
        "meta_element_set_no": 999,
        "meta_rev_at_epoch": 300,
        "meta_bstar": 0.002056577,
        "meta_mean_motion_dot": 0.00578477,
        "meta_mean_motion_ddot": 0,
        "tle_line1": "1 66897U 25283V   25350.21737761  .00578477  00000+0  20566-2 0  9993",
        "tle_line2": "2 66897  53.1545  56.2318 0004833 212.6630 147.4097 15.86956658  3008"
      },
      "geometry": {
        "type": "Point",
        "coordinates": [
          21.59339151308034,
          -34.615901943488055
        ]
      }
    }
  ]
}